H1 CPF 01  gfz 2021 12 14 01  8481 terrasarx 
H2 0702601  6201 31698    2021 12 14 00 59 42 2021 12 19 00 00 42   120 1 1  0 0 0
H9
10 0 59566  55422.000000  0    -645107.679  -1655545.853   6644790.208
10 0 59566  55542.000000  0   -1360650.481  -2172360.949   6383348.424
10 0 59566  55662.000000  0   -2061052.634  -2638871.869   6009709.029
10 0 59566  55782.000000  0   -2733129.472  -3047301.035   5530402.234
10 0 59566  55902.000000  0   -3364054.329  -3391105.259   4953818.426
10 0 59566  56022.000000  0   -3941608.496  -3665084.347   4290065.915
10 0 59566  56142.000000  0   -4454422.052  -3865462.480   3550797.150
10 0 59566  56262.000000  0   -4892202.506  -3989941.619   2749006.873
10 0 59566  56382.000000  0   -5245947.365  -4037726.101   1898804.443
10 0 59566  56502.000000  0   -5508134.646  -4009516.613   1015161.591
10 0 59566  56622.000000  0   -5672885.325  -3907472.477    113642.464
10 0 59566  56742.000000  0   -5736094.308  -3735144.120   -789878.537
10 0 59566  56862.000000  0   -5695526.167  -3497377.123  -1679506.027
10 0 59566  56982.000000  0   -5550871.375  -3200189.072  -2539612.871
10 0 59566  57102.000000  0   -5303763.283  -2850624.273  -3355120.517
10 0 59566  57222.000000  0   -4957756.599  -2456590.380  -4111766.384
10 0 59566  57342.000000  0   -4518268.539  -2026680.945  -4796352.623
10 0 59566  57462.000000  0   -3992484.296  -1569988.989  -5396972.359
10 0 59566  57582.000000  0   -3389229.750  -1095915.222  -5903209.527
10 0 59566  57702.000000  0   -2718815.119   -613975.624  -6306309.088
10 0 59566  57822.000000  0   -1992853.360   -133612.826  -6599317.050
10 0 59566  57942.000000  0   -1224056.097    335985.009  -6777188.643
10 0 59566  58062.000000  0    -426013.097    786054.684  -6836864.852
10 0 59566  58182.000000  0     387042.872   1208417.371  -6777319.079
10 0 59566  58302.000000  0    1200482.572   1595622.506  -6599573.519
10 0 59566  58422.000000  0    1999538.151   1941076.909  -6306685.611
10 0 59566  58542.000000  0    2769566.142   2239156.076  -5903700.787
10 0 59566  58662.000000  0    3496312.363   2485295.572  -5397573.594
10 0 59566  58782.000000  0    4166173.537   2676061.544  -4797058.903
10 0 59566  58902.000000  0    4766454.832   2809200.021  -4112572.450
10 0 59566  59022.000000  0    5285616.062   2883662.573  -3356019.451
10 0 59566  59142.000000  0    5713500.244   2899607.889  -2540595.346
10 0 59566  59262.000000  0    6041542.603   2858379.863  -1680560.913
10 0 59566  59382.000000  0    6262951.327   2762459.839   -790992.213
10 0 59566  59502.000000  0    6372856.008   2615395.336    112486.597
10 0 59566  59622.000000  0    6368418.823   2421705.325   1013984.862
10 0 59566  59742.000000  0    6248905.141   2186765.363   1897631.394
10 0 59566  59862.000000  0    6015714.240   1916676.798   2747862.862
10 0 59566  59982.000000  0    5672365.038   1618120.153   3549706.903
10 0 59566  60102.000000  0    5224439.054   1298198.686   4289052.776
10 0 59566  60222.000000  0    4679481.177    964275.323   4952902.915
10 0 59566  60342.000000  0    4046864.587    623808.337   5529601.552
10 0 59566  60462.000000  0    3337619.802    284187.722   6009038.391
10 0 59566  60582.000000  0    2564232.677    -47421.924   6382819.987
10 0 59566  60702.000000  0    1740419.466   -364228.862   6644410.032
10 0 59566  60822.000000  0     880880.240   -659950.872   6789238.955
10 0 59566  60942.000000  0       1033.583   -928938.556   6814779.211
10 0 59566  61062.000000  0    -883260.269  -1166282.248   6720585.533
10 0 59566  61182.000000  0   -1755984.416  -1367901.732   6508301.415
10 0 59566  61302.000000  0   -2601253.625  -1530616.095   6181631.206
10 0 59566  61422.000000  0   -3403601.833  -1652193.158   5746281.054
10 0 59566  61542.000000  0   -4148268.736  -1731379.600   5209867.247
10 0 59566  61662.000000  0   -4821476.933  -1767910.443   4581788.435
10 0 59566  61782.000000  0   -5410694.137  -1762496.464   3873065.298
10 0 59566  61902.000000  0   -5904874.080  -1716789.486   3096149.689
10 0 59566  62022.000000  0   -6294672.051  -1633327.122   2264707.827
10 0 59566  62142.000000  0   -6572632.406  -1515458.792   1393379.103
10 0 59566  62262.000000  0   -6733339.737  -1367253.183    497511.601
10 0 59566  62382.000000  0   -6773528.638  -1193389.336   -407116.103
10 0 59566  62502.000000  0   -6692150.556   -999034.607  -1304582.030
10 0 59566  62622.000000  0   -6490395.374   -789712.794  -2179109.893
10 0 59566  62742.000000  0   -6171668.472   -571166.339  -3015353.043
10 0 59566  62862.000000  0   -5741524.247   -349216.241  -3798669.353
10 0 59566  62982.000000  0   -5207556.662   -129621.274  -4515379.406
10 0 59566  63102.000000  0   -4579251.911     82058.388  -5153002.495
10 0 59566  63222.000000  0   -3867807.917    280589.744  -5700468.090
10 0 59566  63342.000000  0   -3085923.641    461184.886  -6148298.606
10 0 59566  63462.000000  0   -2247565.517    619606.251  -6488760.912
10 0 59566  63582.000000  0   -1367716.077    752257.190  -6715988.622
10 0 59566  63702.000000  0    -462106.944    856257.049  -6826072.835
10 0 59566  63822.000000  0     453057.107    929499.413  -6817120.461
10 0 59566  63942.000000  0    1361379.685    970692.111  -6689284.452
10 0 59566  64062.000000  0    2246560.765    979379.585  -6444763.494
10 0 59566  64182.000000  0    3092683.617    955947.006  -6087767.976
10 0 59566  64302.000000  0    3884496.961    901605.784  -5624454.000
10 0 59566  64422.000000  0    4607687.724    818360.237  -5062827.653
10 0 59566  64542.000000  0    5249142.653    708956.619  -4412618.579
10 0 59566  64662.000000  0    5797192.960    576815.093  -3685121.795
10 0 59566  64782.000000  0    6241835.689    425945.130  -2893010.259
10 0 59566  64902.000000  0    6574928.153    260846.690  -2050120.872
10 0 59566  65022.000000  0    6790350.883     86398.470  -1171214.758
10 0 59566  65142.000000  0    6884131.326    -92263.839   -271716.285
10 0 59566  65262.000000  0    6854526.439   -269875.964    632562.015
10 0 59566  65382.000000  0    6702062.117   -441178.079   1525704.798
10 0 59566  65502.000000  0    6429526.681   -601048.224   2391982.839
10 0 59566  65622.000000  0    6041917.985   -744632.777   3216139.863
10 0 59566  65742.000000  0    5546344.924   -867470.392   3983667.945
10 0 59566  65862.000000  0    4951889.995   -965606.362   4681067.282
10 0 59566  65982.000000  0    4269432.613  -1035695.540   5296086.219
10 0 59566  66102.000000  0    3511439.470  -1075088.969   5817934.967
10 0 59566  66222.000000  0    2691727.957  -1081904.387   6237471.123
10 0 59566  66342.000000  0    1825207.473  -1055079.218   6547354.118
10 0 59566  66462.000000  0     927603.947   -994404.974   6742168.691
10 0 59566  66582.000000  0      15170.857   -900541.679   6818513.870
10 0 59566  66702.000000  0    -895605.485   -775012.635   6775057.261
10 0 59566  66822.000000  0   -1788302.422   -620179.950   6612556.172
10 0 59566  66942.000000  0   -2646855.465   -439200.399   6333845.108
10 0 59566  67062.000000  0   -3455846.572   -235962.744   5943790.520
10 0 59566  67182.000000  0   -4200783.313    -15007.362   5449212.100
10 0 59566  67302.000000  0   -4868363.741    218570.511   4858769.830
10 0 59566  67422.000000  0   -5446721.168    459231.813   4182817.753
10 0 59566  67542.000000  0   -5925643.945    701117.606   3433226.049
10 0 59566  67662.000000  0   -6296764.963    938183.102   2623174.951
10 0 59566  67782.000000  0   -6553717.906   1164338.925   1766922.336
10 0 59566  67902.000000  0   -6692255.197   1373595.691    879549.151
10 0 59566  68022.000000  0   -6710324.762   1560208.969    -23313.260
10 0 59566  68142.000000  0   -6608101.327   1718820.573   -925767.748
10 0 59566  68262.000000  0   -6387972.310   1844591.799  -1811940.053
10 0 59566  68382.000000  0   -6054480.440   1933326.466  -2666265.724
10 0 59566  68502.000000  0   -5614222.993   1981580.587  -3473770.836
10 0 59566  68622.000000  0   -5075710.000   1986754.514  -4220338.077
10 0 59566  68742.000000  0   -4449187.488   1947166.255  -4892952.244
10 0 59566  68862.000000  0   -3746430.878   1862104.821  -5479921.669
10 0 59566  68982.000000  0   -2980514.781   1731862.982  -5971072.289
10 0 59566  69102.000000  0   -2165564.448   1557748.858  -6357913.945
10 0 59566  69222.000000  0   -1316491.654   1342076.441  -6633776.142
10 0 59566  69342.000000  0    -448722.677   1088135.222  -6793910.763
10 0 59566  69462.000000  0     422076.845    800140.130  -6835564.151
10 0 59566  69582.000000  0    1280276.817    483163.114  -6758020.345
10 0 59566  69702.000000  0    2110557.962    143045.536  -6562613.515
10 0 59566  69822.000000  0    2898179.123   -213706.572  -6252706.668
10 0 59566  69942.000000  0    3629235.264   -580042.727  -5833640.220
10 0 59566  70062.000000  0    4290900.551   -948502.590  -5312648.094
10 0 59566  70182.000000  0    4871655.171  -1311362.858  -4698745.250
10 0 59566  70302.000000  0    5361492.374  -1660795.051  -4002583.038
10 0 59566  70422.000000  0    5752099.738  -1989029.842  -3236274.175
10 0 59566  70542.000000  0    6037011.224  -2288525.346  -2413189.159
10 0 59566  70662.000000  0    6211725.508  -2552135.654  -1547726.428
10 0 59566  70782.000000  0    6273786.994  -2773275.040   -655060.605
10 0 59566  70902.000000  0    6222827.671  -2946074.087    249126.816
10 0 59566  71022.000000  0    6060567.470  -3065523.464   1148929.091
10 0 59566  71142.000000  0    5790773.278  -3127601.530   2028503.081
10 0 59566  71262.000000  0    5419174.135  -3129381.888   2872357.733
10 0 59566  71382.000000  0    4953338.074  -3069118.394   3665634.750
10 0 59566  71502.000000  0    4402512.620  -2946304.168   4394375.679
10 0 59566  71622.000000  0    3777435.859  -2761705.954   5045770.292
10 0 59566  71742.000000  0    3090118.808  -2517372.147   5608383.418
10 0 59566  71862.000000  0    2353606.560  -2216612.829   6072352.437
99
